{
  "type": "FeatureCollection",
  "features": [
    {
      "type": "Feature",
      "properties": {
        "norad_id": 38867,
        "name": "INTELSAT 23 (IS-23)",
        "group": "intelsat",
        "lat": -0.028211685028045646,
        "lon": 9.443357311991,
        "alt_km": 35789.50658324001,
        "timestamp": "2025-12-12T22:42:12.217843+00:00",
        "meta_object_name": "INTELSAT 23 (IS-23)",
        "meta_object_id": "2012-057A",
        "meta_epoch": "2025-12-12T06:22:44.463360",
        "meta_mean_motion": 1.0027282,
        "meta_eccentricity": 0.00010507,
        "meta_inclination": 0.0436,
        "meta_ra_of_asc_node": 96.7603,
        "meta_arg_of_pericenter": 127.4406,
        "meta_mean_anomaly": 259.7037,
        "meta_ephemeris_type": 0,
        "meta_classification_type": "U",
        "meta_norad_cat_id": 38867,
        "meta_element_set_no": 999,
        "meta_rev_at_epoch": 4808,
        "meta_bstar": 0,
        "meta_mean_motion_dot": -2.75e-06,
        "meta_mean_motion_ddot": 0,
        "tle_line1": "1 38867U 12057A   25346.26579240 -.00000275  00000+0  00000+0 0  9995",
        "tle_line2": "2 38867   0.0436  96.7603 0001050 127.4406 259.7037  1.00272820 48083"
      },
      "geometry": {
        "type": "Point",
        "coordinates": [
          9.443357311991,
          -0.028211685028045646
        ]
      }
    },
    {
      "type": "Feature",
      "properties": {
        "norad_id": 39360,
        "name": "FM-6",
        "group": "intelsat",
        "lat": -0.008113455151243483,
        "lon": -53.686906523688485,
        "alt_km": 35793.34972225636,
        "timestamp": "2025-12-12T22:42:12.217855+00:00",
        "meta_object_name": "FM-6",
        "meta_object_id": "2013-058A",
        "meta_epoch": "2025-12-12T03:46:38.737056",
        "meta_mean_motion": 1.002731,
        "meta_eccentricity": 0.00028952,
        "meta_inclination": 0.0112,
        "meta_ra_of_asc_node": 74.0155,
        "meta_arg_of_pericenter": 103.1102,
        "meta_mean_anomaly": 204.4975,
        "meta_ephemeris_type": 0,
        "meta_classification_type": "U",
        "meta_norad_cat_id": 39360,
        "meta_element_set_no": 999,
        "meta_rev_at_epoch": 4419,
        "meta_bstar": 0,
        "meta_mean_motion_dot": -8e-08,
        "meta_mean_motion_ddot": 0,
        "tle_line1": "1 39360U 13058A   25346.15739279 -.00000008  00000+0  00000+0 0  9998",
        "tle_line2": "2 39360   0.0112  74.0155 0002895 103.1102 204.4975  1.00273100 44194"
      },
      "geometry": {
        "type": "Point",
        "coordinates": [
          -53.686906523688485,
          -0.008113455151243483
        ]
      }
    },
    {
      "type": "Feature",
      "properties": {
        "norad_id": 40271,
        "name": "INTELSAT 30 (IS-30)",
        "group": "intelsat",
        "lat": -0.02146883119181406,
        "lon": -32.64822589037523,
        "alt_km": 35789.872465083216,
        "timestamp": "2025-12-12T22:42:12.217867+00:00",
        "meta_object_name": "INTELSAT 30 (IS-30)",
        "meta_object_id": "2014-062A",
        "meta_epoch": "2025-12-11T08:43:38.851968",
        "meta_mean_motion": 1.00271845,
        "meta_eccentricity": 0.00015432,
        "meta_inclination": 0.0188,
        "meta_ra_of_asc_node": 35.8315,
        "meta_arg_of_pericenter": 56.6474,
        "meta_mean_anomaly": 23.6951,
        "meta_ephemeris_type": 0,
        "meta_classification_type": "U",
        "meta_norad_cat_id": 40271,
        "meta_element_set_no": 999,
        "meta_rev_at_epoch": 490,
        "meta_bstar": 0,
        "meta_mean_motion_dot": -1.44e-06,
        "meta_mean_motion_ddot": 0,
        "tle_line1": "1 40271U 14062A   25345.36364412 -.00000144  00000+0  00000+0 0  9993",
        "tle_line2": "2 40271   0.0188  35.8315 0001543  56.6474  23.6951  1.00271845  4900"
      },
      "geometry": {
        "type": "Point",
        "coordinates": [
          -32.64822589037523,
          -0.02146883119181406
        ]
      }
    },
    {
      "type": "Feature",
      "properties": {
        "norad_id": 40333,
        "name": "DIRECTV 14",
        "group": "intelsat",
        "lat": 0.00014468502559563203,
        "lon": -36.76856820286501,
        "alt_km": 35786.58708007499,
        "timestamp": "2025-12-12T22:42:12.217879+00:00",
        "meta_object_name": "DIRECTV 14",
        "meta_object_id": "2014-078B",
        "meta_epoch": "2025-12-11T14:45:07.933824",
        "meta_mean_motion": 1.00273916,
        "meta_eccentricity": 4.131e-05,
        "meta_inclination": 0.0158,
        "meta_ra_of_asc_node": 316.5152,
        "meta_arg_of_pericenter": 238.3752,
        "meta_mean_anomaly": 7.7536,
        "meta_ephemeris_type": 0,
        "meta_classification_type": "U",
        "meta_norad_cat_id": 40333,
        "meta_element_set_no": 999,
        "meta_rev_at_epoch": 4016,
        "meta_bstar": 0,
        "meta_mean_motion_dot": -1.18e-06,
        "meta_mean_motion_ddot": 0,
        "tle_line1": "1 40333U 14078B   25345.61467516 -.00000118  00000+0  00000+0 0  9997",
        "tle_line2": "2 40333   0.0158 316.5152 0000413 238.3752   7.7536  1.00273916 40168"
      },
      "geometry": {
        "type": "Point",
        "coordinates": [
          -36.76856820286501,
          0.00014468502559563203
        ]
      }
    },
    {
      "type": "Feature",
      "properties": {
        "norad_id": 40663,
        "name": "DIRECTV 15",
        "group": "intelsat",
        "lat": -0.035767972170609695,
        "lon": -40.43245345881217,
        "alt_km": 35786.04636910283,
        "timestamp": "2025-12-12T22:42:12.217890+00:00",
        "meta_object_name": "DIRECTV 15",
        "meta_object_id": "2015-026A",
        "meta_epoch": "2025-12-11T21:34:58.682784",
        "meta_mean_motion": 1.00271604,
        "meta_eccentricity": 2.2e-05,
        "meta_inclination": 0.0402,
        "meta_ra_of_asc_node": 85.3093,
        "meta_arg_of_pericenter": 150.3651,
        "meta_mean_anomaly": 66.0596,
        "meta_ephemeris_type": 0,
        "meta_classification_type": "U",
        "meta_norad_cat_id": 40663,
        "meta_element_set_no": 999,
        "meta_rev_at_epoch": 3858,
        "meta_bstar": 0,
        "meta_mean_motion_dot": -9.4e-07,
        "meta_mean_motion_ddot": 0,
        "tle_line1": "1 40663U 15026A   25345.89929031 -.00000094  00000+0  00000+0 0  9995",
        "tle_line2": "2 40663   0.0402  85.3093 0000220 150.3651  66.0596  1.00271604 38587"
      },
      "geometry": {
        "type": "Point",
        "coordinates": [
          -40.43245345881217,
          -0.035767972170609695
        ]
      }
    },
    {
      "type": "Feature",
      "properties": {
        "norad_id": 40664,
        "name": "SKY MEXICO-1",
        "group": "intelsat",
        "lat": -0.028354246895034678,
        "lon": -16.30751120918738,
        "alt_km": 35781.8219077534,
        "timestamp": "2025-12-12T22:42:12.217902+00:00",
        "meta_object_name": "SKY MEXICO-1",
        "meta_object_id": "2015-026B",
        "meta_epoch": "2025-12-12T06:15:30.155616",
        "meta_mean_motion": 1.00272539,
        "meta_eccentricity": 0.00025402,
        "meta_inclination": 0.0355,
        "meta_ra_of_asc_node": 77.8751,
        "meta_arg_of_pericenter": 198.4364,
        "meta_mean_anomaly": 180.0082,
        "meta_ephemeris_type": 0,
        "meta_classification_type": "U",
        "meta_norad_cat_id": 40664,
        "meta_element_set_no": 999,
        "meta_rev_at_epoch": 3858,
        "meta_bstar": 0,
        "meta_mean_motion_dot": -2.25e-06,
        "meta_mean_motion_ddot": 0,
        "tle_line1": "1 40664U 15026B   25346.26076569 -.00000225  00000+0  00000+0 0  9993",
        "tle_line2": "2 40664   0.0355  77.8751 0002540 198.4364 180.0082  1.00272539 38588"
      },
      "geometry": {
        "type": "Point",
        "coordinates": [
          -16.30751120918738,
          -0.028354246895034678
        ]
      }
    },
    {
      "type": "Feature",
      "properties": {
        "norad_id": 40874,
        "name": "INTELSAT 34 (IS-34)",
        "group": "intelsat",
        "lat": 0.018747516337535762,
        "lon": 6.9210550748665,
        "alt_km": 35787.765305030254,
        "timestamp": "2025-12-12T22:42:12.217913+00:00",
        "meta_object_name": "INTELSAT 34 (IS-34)",
        "meta_object_id": "2015-039A",
        "meta_epoch": "2025-12-12T04:39:24.358752",
        "meta_mean_motion": 1.00271377,
        "meta_eccentricity": 3.903e-05,
        "meta_inclination": 0.0142,
        "meta_ra_of_asc_node": 330.3916,
        "meta_arg_of_pericenter": 191.6499,
        "meta_mean_anomaly": 293.4489,
        "meta_ephemeris_type": 0,
        "meta_classification_type": "U",
        "meta_norad_cat_id": 40874,
        "meta_element_set_no": 999,
        "meta_rev_at_epoch": 3775,
        "meta_bstar": 0,
        "meta_mean_motion_dot": -2.76e-06,
        "meta_mean_motion_ddot": 0,
        "tle_line1": "1 40874U 15039A   25346.19403193 -.00000276  00000+0  00000+0 0  9995",
        "tle_line2": "2 40874   0.0142 330.3916 0000390 191.6499 293.4489  1.00271377 37757"
      },
      "geometry": {
        "type": "Point",
        "coordinates": [
          6.9210550748665,
          0.018747516337535762
        ]
      }
    }
  ]
}